NORAD_CAT_ID,OBJECT_NAME,OBJECT_TYPE,EPOCH,MEAN_MOTION,ECCENTRICITY,INCLINATION,RA_OF_ASC_NODE,ARG_OF_PERICENTER,MEAN_ANOMALY,BSTAR,MEAN_MOTION_DOT,MEAN_MOTION_DDOT,TLE_LINE0,TLE_LINE1,TLE_LINE2,SEMIMAJOR_AXIS,PERIOD,APOGEE,PERIGEE,DECAYED
53394.0,STARLINK-4544,PAYLOAD,2024-05-29 08:51:38,15.08838538,0.0001485,53.2165,148.6442,92.628,267.4882,5.7855e-05,6.33e-06,0.0,0 STARLINK-4544,1 53394U 22097G   24150.36919747  .00000633  00000-0  57855-4 0  9998,2 53394  53.2165 148.6442 0001485  92.6280 267.4882 15.08838538100795,6917.885,95.438,540.777,538.723,0.0
53394.0,STARLINK-4544,PAYLOAD,2024-05-30 08:42:25,15.08841406,0.0001433,53.2162,144.1844,90.1034,270.0123,9.5261e-05,1.229e-05,0.0,0 STARLINK-4544,1 53394U 22097G   24151.36279661  .00001229  00000-0  95261-4 0  9998,2 53394  53.2162 144.1844 0001433  90.1034 270.0123 15.08841406100293,6917.876,95.437,540.732,538.75,0.0
53394.0,STARLINK-4544,PAYLOAD,2024-05-31 05:22:27,15.08835939,0.0001575,53.2169,140.3184,84.2238,275.8934,1.262e-05,-8.7e-07,0.0,0 STARLINK-4544,1 53394U 22097G   24152.22392522 -.00000087  00000-0  12620-4 0  9996,2 53394  53.2169 140.3184 0001575  84.2238 275.8934 15.08835939100424,6917.893,95.438,540.847,538.668,0.0
53394.0,STARLINK-4544,PAYLOAD,2024-05-31 08:33:13,15.08840655,0.0001597,53.2173,139.7216,85.401,274.7165,4.9524e-05,5e-06,0.0,0 STARLINK-4544,1 53394U 22097G   24152.35640108  .00000500  00000-0  49524-4 0  9998,2 53394  53.2173 139.7216 0001597  85.4010 274.7165 15.08840655101091,6917.878,95.438,540.848,538.639,0.0
53394.0,STARLINK-4544,PAYLOAD,2024-05-31 16:30:08,15.08843696,0.0001552,53.2172,138.2364,89.6618,270.4552,7.1303e-05,8.47e-06,0.0,0 STARLINK-4544,1 53394U 22097G   24152.68759829  .00000847  00000-0  71303-4 0  9999,2 53394  53.2172 138.2364 0001552  89.6618 270.4552 15.08843696100493,6917.869,95.437,540.808,538.66,0.0
53394.0,STARLINK-4544,PAYLOAD,2024-06-01 08:24:00,15.08823217,0.0001643,53.2176,135.2611,102.8898,257.2278,0.00032785,4.931e-05,0.0,0 STARLINK-4544,1 53394U 22097G   24153.35000179  .00004931  00000-0  32785-3 0  9999,2 53394  53.2176 135.2611 0001643 102.8898 257.2278 15.08823217100594,6917.932,95.439,540.933,538.66,0.0
53394.0,STARLINK-4544,PAYLOAD,2024-06-01 16:20:55,15.0884018,0.0001511,53.2177,133.7748,96.5445,263.5719,0.00010025,1.308e-05,0.0,0 STARLINK-4544,1 53394U 22097G   24153.68119850  .00001308  00000-0  10025-3 0  9990,2 53394  53.2177 133.7748 0001511  96.5445 263.5719 15.08840180100644,6917.88,95.438,540.79,538.7,0.0
53394.0,STARLINK-4544,PAYLOAD,2024-06-02 05:04:00,15.08843545,0.0001514,53.2177,131.396,97.3812,262.7352,6.6337e-05,7.68e-06,0.0,0 STARLINK-4544,1 53394U 22097G   24154.21111753  .00000768  00000-0  66337-4 0  9991,2 53394  53.2177 131.3960 0001514  97.3812 262.7352 15.08843545101377,6917.87,95.437,540.782,538.687,0.0
53394.0,STARLINK-4544,PAYLOAD,2024-06-03 04:54:48,15.08839672,0.0001429,53.2171,126.9384,90.91,269.2056,1.0728e-05,-1.17e-06,0.0,0 STARLINK-4544,1 53394U 22097G   24155.20472260 -.00000117  00000-0  10728-4 0  9996,2 53394  53.2171 126.9384 0001429  90.9100 269.2056 15.08839672100878,6917.881,95.438,540.735,538.758,0.0
53394.0,STARLINK-4544,PAYLOAD,2024-06-03 22:24:02,15.08841822,0.0001409,53.2173,123.6686,90.3734,269.742,4.5653e-05,4.39e-06,0.0,0 STARLINK-4544,1 53394U 22097G   24155.93336041  .00000439  00000-0  45653-4 0  9993,2 53394  53.2173 123.6686 0001409  90.3734 269.7420 15.08841822101639,6917.875,95.437,540.715,538.765,0.0
53394.0,STARLINK-4544,PAYLOAD,2024-06-04 04:45:34,15.08846768,0.0001411,53.2175,122.4789,90.8288,269.2866,8.5888e-05,1.079e-05,0.0,0 STARLINK-4544,1 53394U 22097G   24156.19831579  .00001079  00000-0  85888-4 0  9993,2 53394  53.2175 122.4789 0001411  90.8288 269.2866 15.08846768101020,6917.86,95.437,540.701,538.749,0.0
53394.0,STARLINK-4544,PAYLOAD,2024-06-04 14:17:53,15.08840588,0.0001342,53.2169,120.6944,87.6948,272.4197,8.1915e-05,1.016e-05,0.0,0 STARLINK-4544,1 53394U 22097G   24156.59575967  .00001016  00000-0  81915-4 0  9991,2 53394  53.2169 120.6944 0001342  87.6948 272.4197 15.08840588101089,6917.879,95.438,540.672,538.815,0.0
53394.0,STARLINK-4544,PAYLOAD,2024-06-04 22:14:49,15.08836755,0.0001444,53.2178,119.2084,90.1623,269.9534,4.4684e-05,4.23e-06,0.0,0 STARLINK-4544,1 53394U 22097G   24156.92696388  .00000423  00000-0  44684-4 0  9992,2 53394  53.2178 119.2084 0001444  90.1623 269.9534 15.08836755101784,6917.89,95.438,540.754,538.756,0.0
53394.0,STARLINK-4544,PAYLOAD,2024-06-05 14:08:41,15.08837713,0.0001447,53.2182,116.236,95.0691,265.0466,2.609e-05,1.27e-06,0.0,0 STARLINK-4544,1 53394U 22097G   24157.58936408  .00000127  00000-0  26090-4 0  9997,2 53394  53.2182 116.2360 0001447  95.0691 265.0466 15.08837713101882,6917.887,95.438,540.753,538.751,0.0
53394.0,STARLINK-4544,PAYLOAD,2024-06-05 20:30:13,15.08837763,0.0001493,53.2185,115.0471,102.6646,257.4513,-2.8412e-05,-7.4e-06,0.0,0 STARLINK-4544,1 53394U 22097G   24157.85432651 -.00000740  00000-0 -28412-4 0  9991,2 53394  53.2185 115.0471 0001493 102.6646 257.4513 15.08837763101277,6917.887,95.438,540.785,538.719,0.0
53394.0,STARLINK-4544,PAYLOAD,2024-06-05 22:05:37,15.08834396,0.0001737,53.2185,114.7465,89.8767,270.2424,-7.1665e-05,-1.428e-05,0.0,0 STARLINK-4544,1 53394U 22097G   24157.92057125 -.00001428  00000-0 -71665-4 0  9990,2 53394  53.2185 114.7465 0001737  89.8767 270.2424 15.08834396101933,6917.898,95.438,540.964,538.561,0.0
53394.0,STARLINK-4544,PAYLOAD,2024-06-06 13:59:28,15.08836684,0.0001594,53.2195,111.7736,87.0089,273.1085,1.1361e-05,-1.07e-06,0.0,0 STARLINK-4544,1 53394U 22097G   24158.58296913 -.00000107  00000-0  11361-4 0  9992,2 53394  53.2195 111.7736 0001594  87.0089 273.1085 15.08836684102039,6917.891,95.438,540.858,538.653,0.0
53394.0,STARLINK-4544,PAYLOAD,2024-06-06 23:31:47,15.08832387,0.000154,53.2184,109.9882,89.1284,270.9885,3.2025e-05,2.22e-06,0.0,0 STARLINK-4544,1 53394U 22097G   24158.98041244  .00000222  00000-0  32025-4 0  9998,2 53394  53.2184 109.9882 0001540  89.1284 270.9885 15.08832387101442,6917.904,95.438,540.834,538.703,0.0
53394.0,STARLINK-4544,PAYLOAD,2024-06-07 07:28:42,15.08841886,0.0001376,53.2172,108.5002,89.4851,270.6299,6.3641e-05,7.25e-06,0.0,0 STARLINK-4544,1 53394U 22097G   24159.31160574  .00000725  00000-0  63641-4 0  9990,2 53394  53.2172 108.5002 0001376  89.4851 270.6299 15.08841886101493,6917.875,95.437,540.692,538.788,0.0
53394.0,STARLINK-4544,PAYLOAD,2024-06-07 13:50:15,15.08838098,0.0001226,53.2169,107.3107,82.8608,277.2524,2.99e-05,1.88e-06,0.0,0 STARLINK-4544,1 53394U 22097G   24159.57656952  .00000188  00000-0  29900-4 0  9991,2 53394  53.2169 107.3107 0001226  82.8608 277.2524 15.08838098102185,6917.886,95.438,540.599,538.903,0.0
53394.0,STARLINK-4544,PAYLOAD,2024-06-08 13:41:02,15.08839493,0.0001335,53.2185,102.8487,99.978,260.1362,6.0517e-05,6.75e-06,0.0,0 STARLINK-4544,1 53394U 22097G   24160.57016897  .00000675  00000-0  60517-4 0  9991,2 53394  53.2185 102.8487 0001335  99.9780 260.1362 15.08839493102333,6917.882,95.438,540.67,538.823,0.0
53394.0,STARLINK-4544,PAYLOAD,2024-06-09 02:24:07,15.08841082,0.0001517,53.2165,100.4717,98.9688,261.1476,0.00010076,1.316e-05,0.0,0 STARLINK-4544,1 53394U 22097G   24161.10008880  .00001316  00000-0  10076-3 0  9991,2 53394  53.2165 100.4717 0001517  98.9688 261.1476 15.08841082102412,6917.877,95.437,540.792,538.693,0.0
53394.0,STARLINK-4544,PAYLOAD,2024-06-09 23:04:08,15.08836616,0.000139,53.2176,96.6051,103.6875,256.4272,2.6843e-05,1.39e-06,0.0,0 STARLINK-4544,1 53394U 22097G   24161.96121416  .00000139  00000-0  26843-4 0  9998,2 53394  53.2176  96.6051 0001390 103.6875 256.4272 15.08836616102544,6917.891,95.438,540.717,538.794,0.0
53394.0,STARLINK-4544,PAYLOAD,2024-06-10 05:25:40,15.08848384,0.0001325,53.2178,95.4163,93.0749,267.0395,-3.5127e-06,-3.44e-06,0.0,0 STARLINK-4544,1 53394U 22097G   24162.22616807 -.00000344  00000-0 -35127-5 0  9997,2 53394  53.2178  95.4163 0001325  93.0749 267.0395 15.08848384101938,6917.855,95.437,540.636,538.803,0.0
53394.0,STARLINK-4544,PAYLOAD,2024-06-10 22:54:55,15.08837804,0.0001538,53.2174,92.1434,105.4741,254.6421,4.3237e-05,4e-06,0.0,0 STARLINK-4544,1 53394U 22097G   24162.95481458  .00000400  00000-0  43237-4 0  9990,2 53394  53.2174  92.1434 0001538 105.4741 254.6421 15.08837804102696,6917.887,95.438,540.816,538.688,0.0
53394.0,STARLINK-4544,PAYLOAD,2024-06-11 05:16:28,15.08844672,0.0001417,53.2176,90.9562,96.1528,263.9625,8.8958e-05,1.128e-05,0.0,0 STARLINK-4544,1 53394U 22097G   24163.21976929  .00001128  00000-0  88958-4 0  9999,2 53394  53.2176  90.9562 0001417  96.1528 263.9625 15.08844672102084,6917.866,95.437,540.711,538.751,0.0
53394.0,STARLINK-4544,PAYLOAD,2024-06-12 05:07:14,15.08852249,0.0001291,53.2178,86.4952,85.8032,274.3108,0.00015313,2.151e-05,0.0,0 STARLINK-4544,1 53394U 22097G   24164.21336175  .00002151  00000-0  15313-3 0  9994,2 53394  53.2178  86.4952 0001291  85.8032 274.3108 15.08852249102883,6917.843,95.437,540.601,538.815,0.0
53394.0,STARLINK-4544,PAYLOAD,2024-06-12 11:28:47,15.08845945,0.0001252,53.218,85.304,81.1367,278.9767,0.00010816,1.434e-05,0.0,0 STARLINK-4544,1 53394U 22097G   24164.47832514  .00001434  00000-0  10816-3 0  9996,2 53394  53.2180  85.3040 0001252  81.1367 278.9767 15.08845945102278,6917.862,95.437,540.593,538.861,0.0
53394.0,STARLINK-4544,PAYLOAD,2024-06-12 22:36:30,15.08835842,0.0001915,53.2191,83.2285,86.9999,273.1212,-7.3943e-05,-1.465e-05,0.0,0 STARLINK-4544,1 53394U 22097G   24164.94202129 -.00001465  00000-0 -73943-4 0  9998,2 53394  53.2191  83.2285 0001915  86.9999 273.1212 15.08835842102994,6917.893,95.438,541.083,538.433,0.0
53394.0,STARLINK-4544,PAYLOAD,2024-06-13 00:11:53,15.08833416,0.0001657,53.2196,82.932,92.0018,268.1164,-9.7953e-05,-1.846e-05,0.0,0 STARLINK-4544,1 53394U 22097G   24165.00826289 -.00001846  00000-0 -97953-4 0  9995,2 53394  53.2196  82.9320 0001657  92.0018 268.1164 15.08833416102353,6917.901,95.438,540.912,538.619,0.0
